[{"OBJECT_NAME":"STARLINK-30131","OBJECT_ID":"2023-079L","EPOCH":"2026-03-09T22:00:01.999584","MEAN_MOTION":15.17301963,"ECCENTRICITY":0.00020252,"INCLINATION":43.0004,"RA_OF_ASC_NODE":79.5928,"ARG_OF_PERICENTER":274.1276,"MEAN_ANOMALY":22.6014,"EPHEMERIS_TYPE":0,"CLASSIFICATION_TYPE":"U","NORAD_CAT_ID":56833,"ELEMENT_SET_NO":999,"REV_AT_EPOCH":578,"BSTAR":0.061566052,"MEAN_MOTION_DOT":0.0135934,"MEAN_MOTION_DDOT":0},{"OBJECT_NAME":"CZ-6A DEB","OBJECT_ID":"2024-140PU","EPOCH":"2026-03-09T02:24:11.901600","MEAN_MOTION":14.96529453,"ECCENTRICITY":0.01989751,"INCLINATION":89.1479,"RA_OF_ASC_NODE":289.7131,"ARG_OF_PERICENTER":96.8489,"MEAN_ANOMALY":265.5425,"EPHEMERIS_TYPE":0,"CLASSIFICATION_TYPE":"U","NORAD_CAT_ID":61126,"ELEMENT_SET_NO":999,"REV_AT_EPOCH":8404,"BSTAR":0.00070354239,"MEAN_MOTION_DOT":0.00012037,"MEAN_MOTION_DDOT":0}]
